OBJECT_NAME,OBJECT_ID,EPOCH,MEAN_MOTION,ECCENTRICITY,INCLINATION,RA_OF_ASC_NODE,ARG_OF_PERICENTER,MEAN_ANOMALY,EPHEMERIS_TYPE,CLASSIFICATION_TYPE,NORAD_CAT_ID,ELEMENT_SET_NO,REV_AT_EPOCH,BSTAR,MEAN_MOTION_DOT,MEAN_MOTION_DDOT
COSMOS 2532 (RODNIK-S 18),2018-097C,2026-07-13T14:07:09.924384,12.42910550,.00180976,82.5111,205.7365,4.3544,355.7690,0,U,43753,999,34555,-.13163603E-3,-.8E-7,0
MINXSS-2,2018-099A,2026-07-12T18:11:38.125824,15.48699812,.00084198,97.4535,270.8221,167.9951,192.1502,0,U,43758,999,41808,.59116908E-3,.31684E-3,0
SIRION PATHFINDER-2,2018-099B,2026-07-12T22:42:56.582208,15.14767949,.00082388,97.4243,242.3930,199.6407,160.4509,0,U,43759,999,41652,.16275605E-3,.2956E-4,0
AISTECHSAT 2,2018-099L,2026-07-13T15:07:43.528224,15.15704383,.00044604,97.4279,242.0872,185.2131,174.9056,0,U,43768,999,41628,.16113387E-3,.3004E-4,0
FOX-1CLIFF (AO-95),2018-099N,2026-07-13T03:48:48.256704,15.27248870,.00071002,97.4377,254.3164,248.3656,111.6827,0,U,43770,999,41718,.288771E-3,.7642E-4,0
RANGE-A,2018-099R,2026-07-13T14:58:03.319392,15.13600119,.00085986,97.3953,236.4305,251.5332,108.4965,0,U,43773,999,41649,.12562205E-3,.2192E-4,0
SNUSAT-2,2018-099AA,2026-07-13T15:08:14.459424,15.22224857,.00100712,97.4048,247.6122,193.2269,166.8705,0,U,43782,999,41705,.21687941E-3,.4921E-4,0
SNUGLITE,2018-099AC,2026-07-13T14:38:05.138016,15.27736676,.00034647,97.3858,248.6369,163.9450,196.1899,0,U,43784,999,41735,.25362554E-3,.68E-4,0
ITASAT,2018-099AE,2026-07-13T15:09:02.630880,15.19370289,.00108081,97.4017,245.6182,256.6062,103.3968,0,U,43786,999,41692,.1877459E-3,.3908E-4,0
EAGLET-I,2018-099AJ,2026-07-12T13:56:11.717952,15.13122395,.0009508,97.4222,242.5773,254.7473,105.2707,0,U,43790,999,41617,.11153E-3,.1913E-4,0
ESEO,2018-099AL,2026-07-13T14:07:03.477216,15.04317800,.00108852,97.3955,230.8446,239.9765,120.0383,0,U,43792,999,41577,.10599509E-3,.142E-4,0
THEA,2018-099AQ,2026-07-13T03:20:56.465088,15.35892366,.00078367,97.4438,264.0977,180.9017,179.2214,0,U,43796,999,41667,.39377108E-3,.13695E-3,0
ASTROCAST 0.1,2018-099AS,2026-07-13T11:08:39.964416,15.51369432,.00056576,97.4377,273.8138,135.0390,225.1321,0,U,43798,999,41850,.40950787E-3,.24043E-3,0
JY1SAT (JO-97),2018-099AX,2026-07-13T15:26:44.314080,15.34486685,.00067188,97.4122,257.5822,162.7169,197.4304,0,U,43803,999,41768,.3104522E-3,.103E-3,0
SUOMI-100,2018-099AY,2026-07-12T17:37:34.764096,15.28995113,.0010278,97.4181,254.0402,180.4241,179.6992,0,U,43804,999,41732,.28389883E-3,.7931E-4,0
CENTAURI-1,2018-099BD,2026-07-13T14:23:15.808992,15.16615602,.00128404,97.4210,245.7536,230.8769,129.1323,0,U,43809,999,41650,.14309726E-3,.2735E-4,0
GLOBAL-2,2018-099BG,2026-07-13T14:29:18.270816,15.08819838,.00074594,97.3544,230.0187,71.6172,288.5867,0,U,43812,999,41589,.86449814E-4,.13E-4,0
SEAHAWK-1,2018-099BQ,2026-07-13T14:43:56.341920,15.23222956,.00077072,97.3948,246.7009,204.1991,155.8885,0,U,43820,999,41655,.22002121E-3,.5141E-4,0
SAUDISAT 5A,2018-102A,2026-07-13T14:50:38.931360,15.28310658,.00105662,97.3056,255.6921,48.8286,311.3863,0,U,43831,999,41971,.11239394E-3,.303E-4,0
SAUDISAT 5B,2018-102C,2026-07-13T15:11:33.537984,15.28554522,.00113393,97.3166,258.8239,50.1984,310.0252,0,U,43833,999,41983,.10687769E-3,.29E-4,0
ISAT,2018-111D,2026-07-13T09:27:11.891232,15.70549542,.00076162,97.5857,131.7334,143.7204,216.4576,0,U,43879,999,41527,.61818249E-3,.76432E-3,0
UWE-4,2018-111E,2026-07-12T18:23:27.129408,15.47716069,.00057472,97.5844,123.3656,204.5147,155.5830,0,U,43880,999,41473,.53441815E-3,.27634E-3,0
D-STAR ONE (SPARROW),2018-111F,2026-07-13T08:49:31.603296,15.84286973,.00078801,97.6078,137.8824,141.7583,218.4246,0,U,43881,999,41550,.82142398E-3,.189127E-2,0
JILIN-1 09,2019-005B,2026-07-13T13:37:17.149440,15.20732590,.00024657,97.4749,289.3088,40.2462,319.8956,0,U,43943,999,41315,.11551718E-3,.2472E-4,0
JILIN-1 10,2019-005E,2026-07-13T14:53:24.498816,15.25995996,.00084406,97.4800,293.4303,174.9538,185.1786,0,U,43946,999,41334,.13331943E-3,.3356E-4,0
EGYPTSAT-A (MISRSAT-A),2019-008A,2026-07-13T15:33:05.948928,14.72336072,.00017158,98.0190,259.0535,94.5147,265.6256,0,U,44047,999,39713,.75836365E-4,.43E-5,0
EMISAT,2019-018A,2026-07-13T14:53:18.240000,14.43649839,.0019269,98.4642,253.2733,135.6650,224.6087,0,U,44078,999,38387,.11796253E-3,.357E-5,0
JILIN-1 GAOFEN 3A,2019-032C,2026-07-13T11:27:39.393792,15.33168266,.00047103,44.9725,212.1831,91.3248,268.8176,0,U,44312,999,39187,.18755809E-3,.582E-4,0
WT 1B,2019-032G,2026-07-13T14:54:19.700640,15.27707332,.00084688,44.9741,276.5970,26.4327,333.6987,0,U,44316,999,39112,.23819111E-3,.6283E-4,0
