COSMOS 2532 (RODNIK-S *)
1 43753U 18097C   26194.58830931 -.00000008  00000+0 -13164-3 0  9993
2 43753  82.5111 205.7365 0018097   4.3544 355.7690 12.42910550345551
MINXSS-2                
1 43758U 18099A   26193.75808016  .00031684  00000+0  59117-3 0  9997
2 43758  97.4535 270.8221 0008419 167.9951 192.1502 15.48699812418088
SIRION PATHFINDER-2     
1 43759U 18099B   26193.94648822  .00002956  00000+0  16276-3 0  9995
2 43759  97.4243 242.3930 0008238 199.6407 160.4509 15.14767949416525
AISTECHSAT 2            
1 43768U 18099L   26194.63036491  .00003004  00000+0  16113-3 0  9990
2 43768  97.4279 242.0872 0004460 185.2131 174.9056 15.15704383416288
FOX-1CLIFF (AO-95)      
1 43770U 18099N   26194.15889186  .00007642  00000+0  28877-3 0  9999
2 43770  97.4377 254.3164 0007100 248.3656 111.6827 15.27248870417188
RANGE-A                 
1 43773U 18099R   26194.62364953  .00002192  00000+0  12562-3 0  9993
2 43773  97.3953 236.4305 0008598 251.5332 108.4965 15.13600119416490
SNUSAT-2                
1 43782U 18099AA  26194.63072291  .00004921  00000+0  21688-3 0  9996
2 43782  97.4048 247.6122 0010071 193.2269 166.8705 15.22224857417051
SNUGLITE                
1 43784U 18099AC  26194.60978169  .00006800  00000+0  25363-3 0  9996
2 43784  97.3858 248.6369 0003464 163.9450 196.1899 15.27736676417354
ITASAT                  
1 43786U 18099AE  26194.63128045  .00003908  00000+0  18775-3 0  9996
2 43786  97.4017 245.6182 0010808 256.6062 103.3968 15.19370289416927
EAGLET-I                
1 43790U 18099AJ  26193.58069118  .00001913  00000+0  11153-3 0  9996
2 43790  97.4222 242.5773 0009508 254.7473 105.2707 15.13122395416178
ESEO                    
1 43792U 18099AL  26194.58823469  .00001420  00000+0  10600-3 0  9995
2 43792  97.3955 230.8446 0010885 239.9765 120.0383 15.04317800415775
THEA                    
1 43796U 18099AQ  26194.13954242  .00013695  00000+0  39377-3 0  9993
2 43796  97.4438 264.0977 0007836 180.9017 179.2214 15.35892366416679
ASTROCAST 0.1           
1 43798U 18099AS  26194.46435144  .00024043  00000+0  40951-3 0  9995
2 43798  97.4377 273.8138 0005657 135.0390 225.1321 15.51369432418509
JY1SAT (JO-97)          
1 43803U 18099AX  26194.64356845  .00010300  00000+0  31045-3 0  9997
2 43803  97.4122 257.5822 0006718 162.7169 197.4304 15.34486685417684
SUOMI-100               
1 43804U 18099AY  26193.73443014  .00007931  00000+0  28390-3 0  9997
2 43804  97.4181 254.0402 0010278 180.4241 179.6992 15.28995113417320
CENTAURI-1              
1 43809U 18099BD  26194.59948853  .00002735  00000+0  14310-3 0  9992
2 43809  97.4210 245.7536 0012840 230.8769 129.1323 15.16615602416501
GLOBAL-2                
1 43812U 18099BG  26194.60368369  .00001300  00000+0  86450-4 0  9998
2 43812  97.3544 230.0187 0007459  71.6172 288.5867 15.08819838415894
SEAHAWK-1               
1 43820U 18099BQ  26194.61384655  .00005141  00000+0  22002-3 0  9993
2 43820  97.3948 246.7009 0007707 204.1991 155.8885 15.23222956416552
SAUDISAT 5A             
1 43831U 18102A   26194.61850615  .00003030  00000+0  11239-3 0  9999
2 43831  97.3056 255.6921 0010566  48.8286 311.3863 15.28310658419711
SAUDISAT 5B             
1 43833U 18102C   26194.63302706  .00002900  00000+0  10688-3 0  9998
2 43833  97.3166 258.8239 0011339  50.1984 310.0252 15.28554522419833
ISAT                    
1 43879U 18111D   26194.39388763  .00076432  00000+0  61818-3 0  9990
2 43879  97.5857 131.7334 0007616 143.7204 216.4576 15.70549542415279
UWE-4                   
1 43880U 18111E   26193.76628622  .00027634  00000+0  53442-3 0  9997
2 43880  97.5844 123.3656 0005747 204.5147 155.5830 15.47716069414736
D-STAR ONE (SPARROW)    
1 43881U 18111F   26194.36772689  .00189127  00000+0  82142-3 0  9993
2 43881  97.6078 137.8824 0007880 141.7583 218.4246 15.84286973415503
JILIN-1 09              
1 43943U 19005B   26194.56755960  .00002472  00000+0  11552-3 0  9994
2 43943  97.4749 289.3088 0002465  40.2462 319.8956 15.20732590413157
JILIN-1 10              
1 43946U 19005E   26194.62042244  .00003356  00000+0  13332-3 0  9998
2 43946  97.4800 293.4303 0008440 174.9538 185.1786 15.25995996413344
EGYPTSAT-A (MISRSAT-A)  
1 44047U 19008A   26194.64798552  .00000430  00000+0  75836-4 0  9994
2 44047  98.0190 259.0535 0001715  94.5147 265.6256 14.72336072397131
EMISAT                  
1 44078U 19018A   26194.62035000  .00000357  00000+0  11796-3 0  9991
2 44078  98.4642 253.2733 0019269 135.6650 224.6087 14.43649839383875
JILIN-1 GAOFEN 3A       
1 44312U 19032C   26194.47753928  .00005820  00000+0  18756-3 0  9990
2 44312  44.9725 212.1831 0004710  91.3248 268.8176 15.33168266391871
WT 1B                   
1 44316U 19032G   26194.62106135  .00006283  00000+0  23819-3 0  9993
2 44316  44.9741 276.5970 0008468  26.4327 333.6987 15.27707332391127
